GLOBALSTAR M035         
1 25851U 99037A   24342.54024188 -.00000103  00000+0 -14877-2 0  9990
2 25851  51.9923 122.3535 0014024  36.8845  40.9371 11.04535066 75083
GLOBALSTAR M032         
1 25852U 99037B   24342.28599296 -.00000077  00000+0 -34063-3 0  9999
2 25852  51.9973 321.3578 0010481 205.9430 154.0845 11.19054763113306
GLOBALSTAR M051         
1 25853U 99037C   24342.57673656 -.00000058  00000+0  33109-3 0  9993
2 25853  51.9759 143.1270 0000993 161.9574 198.1272 11.42199671110499
GLOBALSTAR M030         
1 25854U 99037D   24342.32281417 -.00000033  00000+0  88676-3 0  9999
2 25854  51.9895 322.0458 0004032  62.3376 297.7850 11.55101213127876
GLOBALSTAR M048         
1 25872U 99041A   24342.55990493 -.00000052  00000+0  48608-3 0  9992
2 25872  51.9383  70.7917 0013457 209.4283 251.2747 11.33852276103240
GLOBALSTAR M026         
1 25873U 99041B   24342.16980833 -.00000135  00000+0 -25944-2 0  9997
2 25873  52.0001 243.1601 0001173 337.4995 171.3977 11.06825000127226
GLOBALSTAR M043         
1 25874U 99041C   24342.54205684 -.00000067  00000+0  25366-4 0  9997
2 25874  51.9363 170.8436 0012882 350.1812  21.9191 11.25688461101293
GLOBALSTAR M028         
1 25875U 99041D   24342.49419530 -.00000070  00000+0  19967-3 0  9992
2 25875  51.9644  44.6559 0063156  15.5561 344.7223 12.50571335166195
